CARTOSAT-2E             
1 42767U 17036C   26180.49275667  .00005306  00000+0  25485-3 0  9996
2 42767  97.4278 240.0924 0002284 256.7543 103.3437 15.19261711500015
IRIDIUM 113             
1 42803U 17039A   26180.38008322 -.00000032  00000+0 -18618-4 0  9994
2 42803  86.3980 317.0818 0002111  89.7563 270.3874 14.34217189472930
NORSAT 2                
1 42828U 17042D   26180.45321293  .00009203  00000+0  40362-3 0  9995
2 42828  97.4037 353.7006 0009526  16.7370 343.4179 15.22154137489605
TECHNOSAT               
1 42829U 17042E   26180.41643056  .00002446  00000+0  17578-3 0  9991
2 42829  97.4291 337.6102 0019006  55.8906 304.4120 15.05030144488546
FLYING LAPTOP           
1 42831U 17042G   26180.51688700  .00003708  00000+0  29208-3 0  9995
2 42831  97.4736 335.5789 0019970  82.2271 278.1220 15.01224086488308
WNISAT 1R               
1 42835U 17042L   26180.41833463  .00002142  00000+0  16848-3 0  9993
2 42835  97.4833 336.1035 0012022 110.8531 249.3983 15.01811720488346
LEMUR-2-GREENBERG       
1 42837U 17042N   26180.50115927  .00014753  00000+0  48377-3 0  9996
2 42837  97.3814   1.0719 0007461 326.6875  33.3896 15.31697456490272
LEMUR-2-FURIAUS         
1 42840U 17042R   26180.43814079  .00016041  00000+0  54311-3 0  9993
2 42840  97.3767 358.9368 0007286  29.0903 331.0743 15.30644210490085
CORVUS BC2              
1 42846U 17042X   26180.41767037  .00002566  00000+0  17803-3 0  9990
2 42846  97.4066 341.2927 0014409  72.8070 287.4733 15.06367764488906
CORVUS BC1              
1 42847U 17042Y   26180.41093338  .00003281  00000+0  22556-3 0  9993
2 42847  97.4096 342.1081 0012791  51.2824 308.9546 15.06531870488936
VRSS-2                  
1 42954U 17060A   26180.54950249  .00001313  00000+0  17460-3 0  9991
2 42954  97.6509 217.7195 0018561  61.8913 298.4174 14.81216534470284
MOHAMMED VI-A           
1 43005U 17070A   26180.54002610  .00000370  00000+0  59588-4 0  9990
2 43005  97.9562 252.7010 0001203  79.7929 280.3416 14.77083567465803
FENGYUN 3D              
1 43010U 17072A   26180.55091184  .00000312  00000+0  16945-3 0  9998
2 43010  99.0125 155.1967 0002218  41.8916 318.2429 14.19742690446749
NOAA 20 (JPSS-1)        
1 43013U 17073A   26180.47741433  .00000040  00000+0  40173-4 0  9991
2 43013  98.7773 119.8308 0000739 135.2363 224.8873 14.19513872446218
MAKERSAT 0              
1 43016U 17073D   26179.60833345  .00016135  00000+0  43423-3 0  9993
2 43016  97.4612  62.2183 0104830 231.6102 127.5690 15.32461094468214
RADFXSAT (FOX-1B)       
1 43017U 17073E   26179.58479444  .00006671  00000+0  29239-3 0  9990
2 43017  97.4690  46.5670 0148535 289.4918  69.0319 15.12867010467115
JILIN-1 04              
1 43022U 17074A   26180.54092750  .00012037  00000+0  27720-3 0  9992
2 43022  97.4872 290.4850 0004938 141.3085 218.8516 15.42757672476176
JILIN-1 05              
1 43023U 17074B   26180.51540381  .00007903  00000+0  24213-3 0  9998
2 43023  97.4878 286.8374 0005462 170.1754 189.9596 15.34063118475899
JILIN-1 06              
1 43024U 17074C   26180.55387279  .00005946  00000+0  18407-3 0  9991
2 43024  97.4804 283.8701 0006809 183.7178 176.4015 15.33837232475731
IRIDIUM 116             
1 43072U 17083C   26180.42448134  .00000014  00000+0 -21660-5 0  9997
2 43072  86.3975 316.8846 0002221 101.3039 258.8406 14.34217591445920
IRIDIUM 130             
1 43073U 17083D   26180.46253543  .00000096  00000+0  27086-4 0  9996
2 43073  86.3983 317.1452 0002021  97.6305 262.5120 14.34217651445874
LKW-2                   
1 43080U 17084A   26180.54959779  .00009109  00000+0  35144-3 0  9995
2 43080  97.1187 219.7681 0002409 146.6873 213.4518 15.26502864473573
SUPERVIEW-1 03          
1 43099U 18002A   26180.51587560  .00018591  00000+0  45401-3 0  9990
2 43099  97.3141 265.3366 0047503 135.9830 224.5215 15.39692692470263
LKW-3                   
1 43146U 18006A   26180.50196428  .00006656  00000+0  19562-3 0  9993
2 43146  97.6615 341.5587 0001811 249.6514 110.4535 15.35472057470604
ASNARO-2                
1 43152U 18007A   26180.08272655  .00002316  00000+0  10326-3 0  9999
2 43152  97.3969 186.8239 0001655  87.8222 272.3204 15.22396521469222
JILIN-1 07              
1 43159U 18008E   26180.54554387  .00008234  00000+0  24509-3 0  9996
2 43159  97.1763 200.1452 0008699  27.1721 332.9976 15.34923787466894
JILIN-1 08              
1 43160U 18008F   26180.48891747  .00005570  00000+0  17236-3 0  9994
2 43160  97.1797 199.3933 0007212  45.5237 314.6594 15.33847574466837
